[{"OBJECT_NAME":"STARLINK-1063","OBJECT_ID":"2019-074BH","EPOCH":"2026-03-09T18:03:14.732640","MEAN_MOTION":15.29959368,"ECCENTRICITY":0.00012189,"INCLINATION":53.1603,"RA_OF_ASC_NODE":219.104,"ARG_OF_PERICENTER":60.1573,"MEAN_ANOMALY":299.9548,"EPHEMERIS_TYPE":0,"CLASSIFICATION_TYPE":"U","NORAD_CAT_ID":44768,"ELEMENT_SET_NO":999,"REV_AT_EPOCH":34832,"BSTAR":-0.029857537,"MEAN_MOTION_DOT":-0.00812325,"MEAN_MOTION_DDOT":0},{"OBJECT_NAME":"SPHINX\/FRAZIER","OBJECT_ID":"2025-052Y","EPOCH":"2026-03-09T16:24:33.293952","MEAN_MOTION":15.2264428,"ECCENTRICITY":0.00072416,"INCLINATION":97.4068,"RA_OF_ASC_NODE":323.0895,"ARG_OF_PERICENTER":127.8815,"MEAN_ANOMALY":232.3077,"EPHEMERIS_TYPE":0,"CLASSIFICATION_TYPE":"U","NORAD_CAT_ID":63232,"ELEMENT_SET_NO":999,"REV_AT_EPOCH":5472,"BSTAR":0.00035501675,"MEAN_MOTION_DOT":8.199e-5,"MEAN_MOTION_DDOT":0}]
